*******************************************************************************
Ephemeris / WWW_USER Mon Mar 24 09:20:08 2025 Pasadena, USA      / Horizons    
*******************************************************************************
Target body name: 341764 (2007 VZ326)             {source: JPL#18}
Center body name: Earth (399)                     {source: DE441}
Center-site name: Mauna Kea
*******************************************************************************
Start time      : A.D. 2018-Nov-28 03:51:00.0000 UT      
Stop  time      : A.D. 2018-Nov-28 16:28:00.0000 UT      
Step-size       : 1 minutes
*******************************************************************************
Target pole/equ : undefined
Target radii    : undefined                                                    
Center geodetic : 204.5278, 19.8260847, 4.21024   {E-lon(deg),Lat(deg),Alt(km)}
Center cylindric: 204.5278, 6006.35451, 2151.0229 {E-lon(deg),Dxy(km),Dz(km)}
Center pole/equ : ITRF93                          {East-longitude positive}
Center radii    : 6378.137, 6378.137, 6356.752 km {Equator_a, b, pole_c}       
Target primary  : Sun
Vis. interferer : MOON (R_eq= 1737.400) km        {source: DE441}
Rel. light bend : Sun                             {source: DE441}
Rel. lght bnd GM: 1.3271E+11 km^3/s^2                                          
Small-body perts: Yes                             {source: SB441-N16}
Atmos refraction: NO (AIRLESS)
RA format       : HMS
Time format     : CAL 
Calendar mode   : Mixed Julian/Gregorian
RTS-only print  : NO       
EOP file        : eop.250321.p250617                                           
EOP coverage    : DATA-BASED 1962-JAN-20 TO 2025-MAR-21. PREDICTS-> 2025-JUN-16
Units conversion: 1 au= 149597870.700 km, c= 299792.458 km/s, 1 day= 86400.0 s 
Table cut-offs 1: Elevation (-90.0deg=NO ),Airmass (>38.000=NO), Daylight (YES)
Table cut-offs 2: Solar elongation (  0.0,180.0=NO ),Local Hour Angle( 0.0=NO )
Table cut-offs 3: RA/DEC angular rate (     0.0=NO )                           
*******************************************************************************
Initial IAU76/J2000 heliocentric ecliptic osculating elements (au, days, deg.):
  EPOCH=  2458738.5 ! 2019-Sep-12.00 (TDB)         Residual RMS= .13886        
   EC= .1008373990761695   QR= 2.768240023430626   TP= 2458584.3440952813      
   OM= 228.7009686323446   W=  245.4004729743531   IN= 4.232471987434818       
  Equivalent ICRF heliocentric cartesian coordinates (au, au/d):
   X=-2.388613100272569E+00  Y= 1.431394755664809E+00  Z= 3.975078424350988E-01
  VX=-6.081658482309184E-03 VY=-8.102092841560219E-03 VZ=-3.413222734767960E-03
Asteroid physical parameters (km, seconds, rotational period in hours):        
   GM= n.a.                RAD= n.a.               ROTPER= n.a.                
   H= 16.54                G= .150                 B-V= n.a.                   
                           ALBEDO= n.a.            STYP= n.a.                  
*******************************************************************************
 Date__(UT)__HR:MN     R.A._________(ICRF)_________DEC
******************************************************
$$SOE
 2018-Nov-28 03:51 C   06 16 22.541109 +19 44 27.67820
 2018-Nov-28 03:52 C   06 16 22.516061 +19 44 27.61422
 2018-Nov-28 03:53 C   06 16 22.491008 +19 44 27.55025
 2018-Nov-28 03:54 C   06 16 22.465950 +19 44 27.48629
 2018-Nov-28 03:55 C   06 16 22.440885 +19 44 27.42235
 2018-Nov-28 03:56 C   06 16 22.415816 +19 44 27.35843
 2018-Nov-28 03:57 C   06 16 22.390740 +19 44 27.29452
 2018-Nov-28 03:58 C   06 16 22.365660 +19 44 27.23063
 2018-Nov-28 03:59 C   06 16 22.340573 +19 44 27.16676
 2018-Nov-28 04:00 C   06 16 22.315481 +19 44 27.10290
 2018-Nov-28 04:01 C   06 16 22.290383 +19 44 27.03906
 2018-Nov-28 04:02 C   06 16 22.265280 +19 44 26.97523
 2018-Nov-28 04:03 C   06 16 22.240171 +19 44 26.91142
 2018-Nov-28 04:04 C   06 16 22.215057 +19 44 26.84763
 2018-Nov-28 04:05 N   06 16 22.189936 +19 44 26.78384
 2018-Nov-28 04:06 N   06 16 22.164810 +19 44 26.72008
 2018-Nov-28 04:07 N   06 16 22.139679 +19 44 26.65633
 2018-Nov-28 04:08 N   06 16 22.114541 +19 44 26.59259
 2018-Nov-28 04:09 N   06 16 22.089398 +19 44 26.52887
 2018-Nov-28 04:10 N   06 16 22.064249 +19 44 26.46516
 2018-Nov-28 04:11 N   06 16 22.039095 +19 44 26.40147
 2018-Nov-28 04:12 N   06 16 22.013934 +19 44 26.33780
 2018-Nov-28 04:13 N   06 16 21.988768 +19 44 26.27413
 2018-Nov-28 04:14 N   06 16 21.963596 +19 44 26.21049
 2018-Nov-28 04:15 N   06 16 21.938419 +19 44 26.14685
 2018-Nov-28 04:16 N   06 16 21.913235 +19 44 26.08323
 2018-Nov-28 04:17 N   06 16 21.888046 +19 44 26.01963
 2018-Nov-28 04:18 N   06 16 21.862850 +19 44 25.95603
 2018-Nov-28 04:19 N   06 16 21.837649 +19 44 25.89245
 2018-Nov-28 04:20 N   06 16 21.812442 +19 44 25.82889
 2018-Nov-28 04:21 N   06 16 21.787230 +19 44 25.76534
 2018-Nov-28 04:22 N   06 16 21.762011 +19 44 25.70180
 2018-Nov-28 04:23 N   06 16 21.736786 +19 44 25.63828
 2018-Nov-28 04:24 N   06 16 21.711556 +19 44 25.57477
 2018-Nov-28 04:25 N   06 16 21.686319 +19 44 25.51127
 2018-Nov-28 04:26 N   06 16 21.661077 +19 44 25.44778
 2018-Nov-28 04:27 N   06 16 21.635829 +19 44 25.38431
 2018-Nov-28 04:28 N   06 16 21.610574 +19 44 25.32085
 2018-Nov-28 04:29 N   06 16 21.585314 +19 44 25.25740
 2018-Nov-28 04:30 N   06 16 21.560048 +19 44 25.19397
 2018-Nov-28 04:31 N   06 16 21.534775 +19 44 25.13055
 2018-Nov-28 04:32 A   06 16 21.509497 +19 44 25.06714
 2018-Nov-28 04:33 A   06 16 21.484213 +19 44 25.00374
 2018-Nov-28 04:34 A   06 16 21.458923 +19 44 24.94036
 2018-Nov-28 04:35 A   06 16 21.433626 +19 44 24.87698
 2018-Nov-28 04:36 A   06 16 21.408324 +19 44 24.81362
 2018-Nov-28 04:37 A   06 16 21.383015 +19 44 24.75027
 2018-Nov-28 04:38 A   06 16 21.357701 +19 44 24.68693
 2018-Nov-28 04:39 A   06 16 21.332380 +19 44 24.62361
 2018-Nov-28 04:40 A   06 16 21.307054 +19 44 24.56029
 2018-Nov-28 04:41 A   06 16 21.281721 +19 44 24.49699
 2018-Nov-28 04:42 A   06 16 21.256382 +19 44 24.43370
 2018-Nov-28 04:43 A   06 16 21.231037 +19 44 24.37041
 2018-Nov-28 04:44 A   06 16 21.205686 +19 44 24.30714
 2018-Nov-28 04:45 A   06 16 21.180328 +19 44 24.24388
 2018-Nov-28 04:46 A   06 16 21.154965 +19 44 24.18064
 2018-Nov-28 04:47 A   06 16 21.129595 +19 44 24.11740
 2018-Nov-28 04:48 A   06 16 21.104220 +19 44 24.05417
 2018-Nov-28 04:49 A   06 16 21.078838 +19 44 23.99095
 2018-Nov-28 04:50 A   06 16 21.053449 +19 44 23.92774
 2018-Nov-28 04:51 A   06 16 21.028055 +19 44 23.86455
 2018-Nov-28 04:52 A   06 16 21.002655 +19 44 23.80136
 2018-Nov-28 04:53 A   06 16 20.977248 +19 44 23.73818
 2018-Nov-28 04:54 A   06 16 20.951835 +19 44 23.67502
 2018-Nov-28 04:55 A   06 16 20.926416 +19 44 23.61186
 2018-Nov-28 04:56 A   06 16 20.900990 +19 44 23.54871
 2018-Nov-28 04:57 A   06 16 20.875558 +19 44 23.48557
 2018-Nov-28 04:58 A   06 16 20.850120 +19 44 23.42244
 2018-Nov-28 04:59     06 16 20.824676 +19 44 23.35932
 2018-Nov-28 05:00     06 16 20.799226 +19 44 23.29621
 2018-Nov-28 05:01     06 16 20.773769 +19 44 23.23311
 2018-Nov-28 05:02     06 16 20.748306 +19 44 23.17002
 2018-Nov-28 05:03     06 16 20.722836 +19 44 23.10693
 2018-Nov-28 05:04     06 16 20.697361 +19 44 23.04386
 2018-Nov-28 05:05     06 16 20.671879 +19 44 22.98079
 2018-Nov-28 05:06     06 16 20.646391 +19 44 22.91773
 2018-Nov-28 05:07     06 16 20.620896 +19 44 22.85468
 2018-Nov-28 05:08     06 16 20.595395 +19 44 22.79164
 2018-Nov-28 05:09     06 16 20.569888 +19 44 22.72860
 2018-Nov-28 05:10     06 16 20.544374 +19 44 22.66558
 2018-Nov-28 05:11     06 16 20.518854 +19 44 22.60256
 2018-Nov-28 05:12     06 16 20.493328 +19 44 22.53955
 2018-Nov-28 05:13     06 16 20.467795 +19 44 22.47654
 2018-Nov-28 05:14     06 16 20.442256 +19 44 22.41355
 2018-Nov-28 05:15     06 16 20.416710 +19 44 22.35056
 2018-Nov-28 05:16     06 16 20.391158 +19 44 22.28758
 2018-Nov-28 05:17     06 16 20.365600 +19 44 22.22460
 2018-Nov-28 05:18     06 16 20.340035 +19 44 22.16164
 2018-Nov-28 05:19     06 16 20.314464 +19 44 22.09868
 2018-Nov-28 05:20     06 16 20.288887 +19 44 22.03572
 2018-Nov-28 05:21     06 16 20.263303 +19 44 21.97277
 2018-Nov-28 05:22     06 16 20.237712 +19 44 21.90983
 2018-Nov-28 05:23     06 16 20.212116 +19 44 21.84690
 2018-Nov-28 05:24     06 16 20.186512 +19 44 21.78397
 2018-Nov-28 05:25     06 16 20.160903 +19 44 21.72105
 2018-Nov-28 05:26     06 16 20.135287 +19 44 21.65813
 2018-Nov-28 05:27     06 16 20.109664 +19 44 21.59522
 2018-Nov-28 05:28     06 16 20.084035 +19 44 21.53232
 2018-Nov-28 05:29     06 16 20.058400 +19 44 21.46942
 2018-Nov-28 05:30  r  06 16 20.032758 +19 44 21.40653
 2018-Nov-28 05:31     06 16 20.007109 +19 44 21.34364
 2018-Nov-28 05:32     06 16 19.981454 +19 44 21.28075
 2018-Nov-28 05:33     06 16 19.955793 +19 44 21.21788
 2018-Nov-28 05:34     06 16 19.930125 +19 44 21.15500
 2018-Nov-28 05:35     06 16 19.904451 +19 44 21.09214
 2018-Nov-28 05:36     06 16 19.878770 +19 44 21.02927
 2018-Nov-28 05:37     06 16 19.853083 +19 44 20.96641
 2018-Nov-28 05:38     06 16 19.827389 +19 44 20.90356
 2018-Nov-28 05:39     06 16 19.801689 +19 44 20.84071
 2018-Nov-28 05:40     06 16 19.775982 +19 44 20.77787
 2018-Nov-28 05:41     06 16 19.750268 +19 44 20.71503
 2018-Nov-28 05:42     06 16 19.724549 +19 44 20.65219
 2018-Nov-28 05:43     06 16 19.698822 +19 44 20.58936
 2018-Nov-28 05:44     06 16 19.673089 +19 44 20.52653
 2018-Nov-28 05:45     06 16 19.647350 +19 44 20.46370
 2018-Nov-28 05:46     06 16 19.621604 +19 44 20.40088
 2018-Nov-28 05:47     06 16 19.595851 +19 44 20.33806
 2018-Nov-28 05:48     06 16 19.570092 +19 44 20.27524
 2018-Nov-28 05:49     06 16 19.544327 +19 44 20.21243
 2018-Nov-28 05:50     06 16 19.518555 +19 44 20.14962
 2018-Nov-28 05:51     06 16 19.492776 +19 44 20.08682
 2018-Nov-28 05:52     06 16 19.466991 +19 44 20.02401
 2018-Nov-28 05:53     06 16 19.441199 +19 44 19.96121
